FLOCK 4G-25             
1 62646U 25009AP  26189.77767661  .00008107  00000+0  28244-3 0  9991
2 62646  97.4010 271.7658 0001832 178.1894 181.9354 15.29919736 82222
FLOCK 4G-23             
1 62647U 25009AQ  26189.77272076  .00035504  00000+0  10640-2 0  9994
2 62647  97.3925 271.4493 0002791 185.3897 174.7317 15.34412013 82231
FLOCK 4G-34             
1 62650U 25009AT  26189.78111039  .00007312  00000+0  25681-3 0  9998
2 62650  97.3958 271.2625 0001780 179.2333 180.8911 15.29690496 82213
FLOCK 4G-21             
1 62651U 25009AU  26189.77799508  .00028778  00000+0  91545-3 0  9992
2 62651  97.3987 272.2311 0002522 210.8695 149.2399 15.32556258 82262
FLOCK 4G-31             
1 62652U 25009AV  26189.74477296  .00006728  00000+0  23794-3 0  9999
2 62652  97.3964 271.1997 0001332 169.6364 190.4904 15.29495338 82209
FLOCK 4G-4              
1 62659U 25009BC  26189.72759358  .00027114  00000+0  88225-3 0  9998
2 62659  97.3940 270.9724 0004141 211.0185 149.0813 15.31836485139802
FLOCK 4G-6              
1 62660U 25009BD  26189.80103532  .00005995  00000+0  20974-3 0  9996
2 62660  97.3936 271.1058 0002316 228.4481 131.6561 15.29896603139807
FLOCK 4G-2              
1 62661U 25009BE  26189.79608271  .00006804  00000+0  23517-3 0  9991
2 62661  97.4003 271.7339 0003146 227.0608 133.0369 15.30240459139839
FLOCK 4G-5              
1 62663U 25009BG  26189.79343222  .00006213  00000+0  21113-3 0  9999
2 62663  97.4022 272.1242 0002858 203.3773 156.7339 15.30828956 82244
FLOCK 4G-1              
1 62666U 25009BK  26189.78039025  .00008072  00000+0  27963-3 0  9998
2 62666  97.4018 271.6976 0003365 224.3247 135.7725 15.30102714 82213
FLOCK 4G-14             
1 62667U 25009BL  26189.74417885  .00007367  00000+0  25904-3 0  9998
2 62667  97.4018 271.4625 0003485 219.2540 140.8448 15.29648035 82190
FLOCK 4G-10             
1 62670U 25009BP  26189.75551947  .00007284  00000+0  25540-3 0  9995
2 62670  97.3917 270.7788 0003130 241.1804 118.9123 15.29746644139832
FLOCK 4G-36             
1 62675U 25009BU  26189.81534395  .00006874  00000+0  24138-3 0  9991
2 62675  97.4007 271.4550 0003665 225.8436 134.2503 15.29719480 82205
FLOCK 4G-15             
1 62678U 25009BX  26189.75724330  .00007617  00000+0  26639-3 0  9991
2 62678  97.4011 271.5389 0003965 222.1075 137.9861 15.29810372139848
FLOCK 4G-30             
1 62679U 25009BY  26189.45609051  .00028488  00000+0  87727-3 0  9995
2 62679  97.3912 270.7302 0003722 218.7502 141.3474 15.33591036139804
FLOCK 4G-18             
1 62680U 25009BZ  26189.78946829  .00025667  00000+0  83398-3 0  9996
2 62680  97.4006 271.4676 0005537 232.7407 127.3330 15.31887826139841
