{"fetched_at":"2026-07-09T18:16:44.960Z","source":"https://celestrak.org/NORAD/elements/gp.php?GROUP=planet&FORMAT=JSON","constellation":"superdove","records":[{"OBJECT_NAME":"FLOCK 4G-25","OBJECT_ID":"2025-009AP","EPOCH":"2026-07-08T18:39:51.259104","CLASSIFICATION_TYPE":"U","MEAN_MOTION":15.29919736,"ECCENTRICITY":0.00018325,"INCLINATION":97.401,"RA_OF_ASC_NODE":271.7658,"ARG_OF_PERICENTER":178.1894,"MEAN_ANOMALY":181.9354,"EPHEMERIS_TYPE":0,"NORAD_CAT_ID":62646,"ELEMENT_SET_NO":999,"REV_AT_EPOCH":8222,"BSTAR":0.00028243834,"MEAN_MOTION_DOT":0.00008107,"MEAN_MOTION_DDOT":0},{"OBJECT_NAME":"FLOCK 4G-23","OBJECT_ID":"2025-009AQ","EPOCH":"2026-07-08T18:32:43.073664","CLASSIFICATION_TYPE":"U","MEAN_MOTION":15.34412013,"ECCENTRICITY":0.00027911,"INCLINATION":97.3925,"RA_OF_ASC_NODE":271.4493,"ARG_OF_PERICENTER":185.3897,"MEAN_ANOMALY":174.7317,"EPHEMERIS_TYPE":0,"NORAD_CAT_ID":62647,"ELEMENT_SET_NO":999,"REV_AT_EPOCH":8223,"BSTAR":0.0010639588,"MEAN_MOTION_DOT":0.00035504,"MEAN_MOTION_DDOT":0},{"OBJECT_NAME":"FLOCK 4G-34","OBJECT_ID":"2025-009AT","EPOCH":"2026-07-08T18:44:47.937696","CLASSIFICATION_TYPE":"U","MEAN_MOTION":15.29690496,"ECCENTRICITY":0.00017804,"INCLINATION":97.3958,"RA_OF_ASC_NODE":271.2625,"ARG_OF_PERICENTER":179.2333,"MEAN_ANOMALY":180.8911,"EPHEMERIS_TYPE":0,"NORAD_CAT_ID":62650,"ELEMENT_SET_NO":999,"REV_AT_EPOCH":8221,"BSTAR":0.00025681286,"MEAN_MOTION_DOT":0.00007312,"MEAN_MOTION_DDOT":0},{"OBJECT_NAME":"FLOCK 4G-21","OBJECT_ID":"2025-009AU","EPOCH":"2026-07-08T18:40:18.774912","CLASSIFICATION_TYPE":"U","MEAN_MOTION":15.32556258,"ECCENTRICITY":0.00025223,"INCLINATION":97.3987,"RA_OF_ASC_NODE":272.2311,"ARG_OF_PERICENTER":210.8695,"MEAN_ANOMALY":149.2399,"EPHEMERIS_TYPE":0,"NORAD_CAT_ID":62651,"ELEMENT_SET_NO":999,"REV_AT_EPOCH":8226,"BSTAR":0.00091544628,"MEAN_MOTION_DOT":0.00028778,"MEAN_MOTION_DDOT":0},{"OBJECT_NAME":"FLOCK 4G-31","OBJECT_ID":"2025-009AV","EPOCH":"2026-07-08T17:52:28.383744","CLASSIFICATION_TYPE":"U","MEAN_MOTION":15.29495338,"ECCENTRICITY":0.00013325,"INCLINATION":97.3964,"RA_OF_ASC_NODE":271.1997,"ARG_OF_PERICENTER":169.6364,"MEAN_ANOMALY":190.4904,"EPHEMERIS_TYPE":0,"NORAD_CAT_ID":62652,"ELEMENT_SET_NO":999,"REV_AT_EPOCH":8220,"BSTAR":0.00023793667,"MEAN_MOTION_DOT":0.00006728,"MEAN_MOTION_DDOT":0},{"OBJECT_NAME":"FLOCK 4G-4","OBJECT_ID":"2025-009BC","EPOCH":"2026-07-08T17:27:44.085312","CLASSIFICATION_TYPE":"U","MEAN_MOTION":15.31836485,"ECCENTRICITY":0.00041416,"INCLINATION":97.394,"RA_OF_ASC_NODE":270.9724,"ARG_OF_PERICENTER":211.0185,"MEAN_ANOMALY":149.0813,"EPHEMERIS_TYPE":0,"NORAD_CAT_ID":62659,"ELEMENT_SET_NO":999,"REV_AT_EPOCH":13980,"BSTAR":0.00088224521,"MEAN_MOTION_DOT":0.00027114,"MEAN_MOTION_DDOT":0},{"OBJECT_NAME":"FLOCK 4G-6","OBJECT_ID":"2025-009BD","EPOCH":"2026-07-08T19:13:29.451648","CLASSIFICATION_TYPE":"U","MEAN_MOTION":15.29896603,"ECCENTRICITY":0.00023162,"INCLINATION":97.3936,"RA_OF_ASC_NODE":271.1058,"ARG_OF_PERICENTER":228.4481,"MEAN_ANOMALY":131.6561,"EPHEMERIS_TYPE":0,"NORAD_CAT_ID":62660,"ELEMENT_SET_NO":999,"REV_AT_EPOCH":13980,"BSTAR":0.00020974318,"MEAN_MOTION_DOT":0.00005995,"MEAN_MOTION_DDOT":0},{"OBJECT_NAME":"FLOCK 4G-2","OBJECT_ID":"2025-009BE","EPOCH":"2026-07-08T19:06:21.546144","CLASSIFICATION_TYPE":"U","MEAN_MOTION":15.30240459,"ECCENTRICITY":0.00031467,"INCLINATION":97.4003,"RA_OF_ASC_NODE":271.7339,"ARG_OF_PERICENTER":227.0608,"MEAN_ANOMALY":133.0369,"EPHEMERIS_TYPE":0,"NORAD_CAT_ID":62661,"ELEMENT_SET_NO":999,"REV_AT_EPOCH":13983,"BSTAR":0.00023517014,"MEAN_MOTION_DOT":0.00006804,"MEAN_MOTION_DDOT":0},{"OBJECT_NAME":"FLOCK 4G-5","OBJECT_ID":"2025-009BG","EPOCH":"2026-07-08T19:02:32.543808","CLASSIFICATION_TYPE":"U","MEAN_MOTION":15.30828956,"ECCENTRICITY":0.00028584,"INCLINATION":97.4022,"RA_OF_ASC_NODE":272.1242,"ARG_OF_PERICENTER":203.3773,"MEAN_ANOMALY":156.7339,"EPHEMERIS_TYPE":0,"NORAD_CAT_ID":62663,"ELEMENT_SET_NO":999,"REV_AT_EPOCH":8224,"BSTAR":0.00021113389,"MEAN_MOTION_DOT":0.00006213,"MEAN_MOTION_DDOT":0},{"OBJECT_NAME":"FLOCK 4G-1","OBJECT_ID":"2025-009BK","EPOCH":"2026-07-08T18:43:45.717600","CLASSIFICATION_TYPE":"U","MEAN_MOTION":15.30102714,"ECCENTRICITY":0.0003365,"INCLINATION":97.4018,"RA_OF_ASC_NODE":271.6976,"ARG_OF_PERICENTER":224.3247,"MEAN_ANOMALY":135.7725,"EPHEMERIS_TYPE":0,"NORAD_CAT_ID":62666,"ELEMENT_SET_NO":999,"REV_AT_EPOCH":8221,"BSTAR":0.00027962952,"MEAN_MOTION_DOT":0.00008072,"MEAN_MOTION_DDOT":0},{"OBJECT_NAME":"FLOCK 4G-14","OBJECT_ID":"2025-009BL","EPOCH":"2026-07-08T17:51:37.052640","CLASSIFICATION_TYPE":"U","MEAN_MOTION":15.29648035,"ECCENTRICITY":0.00034852,"INCLINATION":97.4018,"RA_OF_ASC_NODE":271.4625,"ARG_OF_PERICENTER":219.254,"MEAN_ANOMALY":140.8448,"EPHEMERIS_TYPE":0,"NORAD_CAT_ID":62667,"ELEMENT_SET_NO":999,"REV_AT_EPOCH":8219,"BSTAR":0.00025904023,"MEAN_MOTION_DOT":0.00007367,"MEAN_MOTION_DDOT":0},{"OBJECT_NAME":"FLOCK 4G-10","OBJECT_ID":"2025-009BP","EPOCH":"2026-07-08T18:07:56.882208","CLASSIFICATION_TYPE":"U","MEAN_MOTION":15.29746644,"ECCENTRICITY":0.00031309,"INCLINATION":97.3917,"RA_OF_ASC_NODE":270.7788,"ARG_OF_PERICENTER":241.1804,"MEAN_ANOMALY":118.9123,"EPHEMERIS_TYPE":0,"NORAD_CAT_ID":62670,"ELEMENT_SET_NO":999,"REV_AT_EPOCH":13983,"BSTAR":0.00025539573,"MEAN_MOTION_DOT":0.00007284,"MEAN_MOTION_DDOT":0},{"OBJECT_NAME":"FLOCK 4G-36","OBJECT_ID":"2025-009BU","EPOCH":"2026-07-08T19:34:05.717280","CLASSIFICATION_TYPE":"U","MEAN_MOTION":15.2971948,"ECCENTRICITY":0.00036651,"INCLINATION":97.4007,"RA_OF_ASC_NODE":271.455,"ARG_OF_PERICENTER":225.8436,"MEAN_ANOMALY":134.2503,"EPHEMERIS_TYPE":0,"NORAD_CAT_ID":62675,"ELEMENT_SET_NO":999,"REV_AT_EPOCH":8220,"BSTAR":0.00024138286,"MEAN_MOTION_DOT":0.00006874,"MEAN_MOTION_DDOT":0},{"OBJECT_NAME":"FLOCK 4G-15","OBJECT_ID":"2025-009BX","EPOCH":"2026-07-08T18:10:25.821120","CLASSIFICATION_TYPE":"U","MEAN_MOTION":15.29810372,"ECCENTRICITY":0.00039653,"INCLINATION":97.4011,"RA_OF_ASC_NODE":271.5389,"ARG_OF_PERICENTER":222.1075,"MEAN_ANOMALY":137.9861,"EPHEMERIS_TYPE":0,"NORAD_CAT_ID":62678,"ELEMENT_SET_NO":999,"REV_AT_EPOCH":13984,"BSTAR":0.00026639219,"MEAN_MOTION_DOT":0.00007617,"MEAN_MOTION_DDOT":0},{"OBJECT_NAME":"FLOCK 4G-30","OBJECT_ID":"2025-009BY","EPOCH":"2026-07-08T10:56:46.220064","CLASSIFICATION_TYPE":"U","MEAN_MOTION":15.33591036,"ECCENTRICITY":0.00037222,"INCLINATION":97.3912,"RA_OF_ASC_NODE":270.7302,"ARG_OF_PERICENTER":218.7502,"MEAN_ANOMALY":141.3474,"EPHEMERIS_TYPE":0,"NORAD_CAT_ID":62679,"ELEMENT_SET_NO":999,"REV_AT_EPOCH":13980,"BSTAR":0.00087727158,"MEAN_MOTION_DOT":0.00028488,"MEAN_MOTION_DDOT":0},{"OBJECT_NAME":"FLOCK 4G-18","OBJECT_ID":"2025-009BZ","EPOCH":"2026-07-08T18:56:50.060256","CLASSIFICATION_TYPE":"U","MEAN_MOTION":15.31887826,"ECCENTRICITY":0.00055373,"INCLINATION":97.4006,"RA_OF_ASC_NODE":271.4676,"ARG_OF_PERICENTER":232.7407,"MEAN_ANOMALY":127.333,"EPHEMERIS_TYPE":0,"NORAD_CAT_ID":62680,"ELEMENT_SET_NO":999,"REV_AT_EPOCH":13984,"BSTAR":0.00083397603,"MEAN_MOTION_DOT":0.00025667,"MEAN_MOTION_DDOT":0}]}
